{
    "links": {
        "self": "http://www.neowsapp.com/rest/v1/neo/3710237?api_key=iIulBulltgU6a56xZRHN4H3l9WmuAYTsLGpBGhQ2"
    },
    "id": "3710237",
    "neo_reference_id": "3710237",
    "name": "(2015 CO13)",
    "designation": "2015 CO13",
    "nasa_jpl_url": "http://ssd.jpl.nasa.gov/sbdb.cgi?sstr=3710237",
    "absolute_magnitude_h": 24.0,
    "estimated_diameter": {
        "kilometers": {
            "estimated_diameter_min": 0.0421264611,
            "estimated_diameter_max": 0.0941976306
        },
        "meters": {
            "estimated_diameter_min": 42.1264610556,
            "estimated_diameter_max": 94.1976305719
        },
        "miles": {
            "estimated_diameter_min": 0.0261761612,
            "estimated_diameter_max": 0.0585316759
        },
        "feet": {
            "estimated_diameter_min": 138.2101784897,
            "estimated_diameter_max": 309.0473542854
        }
    },
    "is_potentially_hazardous_asteroid": false,
    "close_approach_data": [
        {
            "close_approach_date": "2001-02-08",
            "close_approach_date_full": "2001-Feb-08 19:08",
            "epoch_date_close_approach": 981659280000,
            "relative_velocity": {
                "kilometers_per_second": "27.7677127199",
                "kilometers_per_hour": "99963.7657915324",
                "miles_per_hour": "62113.5965830774"
            },
            "miss_distance": {
                "astronomical": "0.2765618661",
                "lunar": "107.5825659129",
                "kilometers": "41373066.091785207",
                "miles": "25708031.1721895766"
            },
            "orbiting_body": "Earth"
        },
        {
            "close_approach_date": "2015-02-24",
            "close_approach_date_full": "2015-Feb-24 19:30",
            "epoch_date_close_approach": 1424806200000,
            "relative_velocity": {
                "kilometers_per_second": "19.0647677711",
                "kilometers_per_hour": "68633.1639759028",
                "miles_per_hour": "42645.979027138"
            },
            "miss_distance": {
                "astronomical": "0.034319476",
                "lunar": "13.350276164",
                "kilometers": "5134120.50911612",
                "miles": "3190194.553077656"
            },
            "orbiting_body": "Earth"
        }
    ],
    "orbital_data": {
        "orbit_id": "8",
        "orbit_determination_date": "2018-02-10 07:06:12",
        "first_observation_date": "2015-02-13",
        "last_observation_date": "2015-02-23",
        "data_arc_in_days": 10,
        "observations_used": 49,
        "orbit_uncertainty": "8",
        "minimum_orbit_intersection": ".0199205",
        "jupiter_tisserand_invariant": "3.527",
        "epoch_osculation": "2457068.5",
        "eccentricity": ".672770651957496",
        "semi_major_axis": "1.991776608854995",
        "inclination": "3.119241284349439",
        "ascending_node_longitude": "118.7561841458534",
        "orbital_period": "1026.737368271219",
        "perihelion_distance": ".6517677611619297",
        "perihelion_argument": "117.5950553500099",
        "aphelion_distance": "3.331785456548061",
        "perihelion_time": "2457124.043362842797",
        "mean_anomaly": "340.5250970293652",
        "mean_motion": ".3506252047747656",
        "equinox": "J2000",
        "orbit_class": {
            "orbit_class_type": "APO",
            "orbit_class_description": "Near-Earth asteroid orbits which cross the Earth’s orbit similar to that of 1862 Apollo",
            "orbit_class_range": "a (semi-major axis) > 1.0 AU; q (perihelion) < 1.017 AU"
        }
    },
    "is_sentry_object": false
}